{"type": "FeatureCollection", "features": [ {"type": "Feature", "properties": {"norad_id": 31660, "name": "FENGYUN 1C DEB", "group": "fengyun-1c-debris", "lat": -48.05307070605244, "lon": 11.927828633260466, "alt_km": 881.0731289943787, "timestamp": "2025-12-27T09:28:56.759990+00:00", "meta": {"OBJECT_NAME": "FENGYUN 1C DEB", "OBJECT_ID": "1999-025CBS", "EPOCH": "2025-12-25T19:00:51.233760", "MEAN_MOTION": 14.27158223, "ECCENTRICITY": 0.01023474, "INCLINATION": 98.5066, "RA_OF_ASC_NODE": 0.7825, "ARG_OF_PERICENTER": 142.3016, "MEAN_ANOMALY": 218.5394, "EPHEMERIS_TYPE": 0, "CLASSIFICATION_TYPE": "U", "NORAD_CAT_ID": 31660, "ELEMENT_SET_NO": 999, "REV_AT_EPOCH": 8102, "BSTAR": 0.00055332784, "MEAN_MOTION_DOT": 1.386e-05, "MEAN_MOTION_DDOT": 0}, "tle": {"line1": "1 31660U 99025CBS 25359.79225965  .00001386  00000+0  55333-3 0  9999", "line2": "2 31660  98.5066   0.7825 0102347 142.3016 218.5394 14.27158223 81026"}}, "geometry": {"type": "Point", "coordinates": [11.927828633260466, -48.05307070605244]}}, {"type": "Feature", "properties": {"norad_id": 31661, "name": "FENGYUN 1C DEB", "group": "fengyun-1c-debris", "lat": -70.35244516065568, "lon": 106.53195010374122, "alt_km": 824.8495034866646, "timestamp": "2025-12-27T09:28:56.760000+00:00", "meta": {"OBJECT_NAME": "FENGYUN 1C DEB", "OBJECT_ID": "1999-025CBT", "EPOCH": "2025-12-24T16:50:35.606400", "MEAN_MOTION": 14.25524803, "ECCENTRICITY": 0.00590656, "INCLINATION": 98.8598, "RA_OF_ASC_NODE": 77.9062, "ARG_OF_PERICENTER": 190.1629, "MEAN_ANOMALY": 322.7954, "EPHEMERIS_TYPE": 0, "CLASSIFICATION_TYPE": "U", "NORAD_CAT_ID": 31661, "ELEMENT_SET_NO": 999, "REV_AT_EPOCH": 95883, "BSTAR": 0.0016959684, "MEAN_MOTION_DOT": 4.04e-05, "MEAN_MOTION_DDOT": 0}, "tle": {"line1": "1 31661U 99025CBT 25358.70180100  .00004040  00000+0  16960-2 0  9993", "line2": "2 31661  98.8598  77.9062 0059065 190.1629 322.7954 14.25524803958839"}}, "geometry": {"type": "Point", "coordinates": [106.53195010374122, -70.35244516065568]}}, {"type": "Feature", "properties": {"norad_id": 31663, "name": "FENGYUN 1C DEB", "group": "fengyun-1c-debris", "lat": -69.62789352002481, "lon": -64.57476323219974, "alt_km": 662.134761300832, "timestamp": "2025-12-27T09:28:56.760011+00:00", "meta": {"OBJECT_NAME": "FENGYUN 1C DEB", "OBJECT_ID": "1999-025CBV", "EPOCH": "2025-12-24T00:29:19.607712", "MEAN_MOTION": 14.76454332, "ECCENTRICITY": 0.01900004, "INCLINATION": 98.8389, "RA_OF_ASC_NODE": 266.9581, "ARG_OF_PERICENTER": 201.7959, "MEAN_ANOMALY": 157.5086, "EPHEMERIS_TYPE": 0, "CLASSIFICATION_TYPE": "U", "NORAD_CAT_ID": 31663, "ELEMENT_SET_NO": 999, "REV_AT_EPOCH": 99446, "BSTAR": 0.00025673449, "MEAN_MOTION_DOT": 2.328e-05, "MEAN_MOTION_DDOT": 0}, "tle": {"line1": "1 31663U 99025CBV 25358.02036583  .00002328  00000+0  25673-3 0  9994", "line2": "2 31663  98.8389 266.9581 0190000 201.7959 157.5086 14.76454332994469"}}, "geometry": {"type": "Point", "coordinates": [-64.57476323219974, -69.62789352002481]}}, {"type": "Feature", "properties": {"norad_id": 31664, "name": "FENGYUN 1C DEB", "group": "fengyun-1c-debris", "lat": -45.66231484788652, "lon": 163.44796513258564, "alt_km": 894.2865331431385, "timestamp": "2025-12-27T09:28:56.760021+00:00", "meta": {"OBJECT_NAME": "FENGYUN 1C DEB", "OBJECT_ID": "1999-025CBW", "EPOCH": "2025-12-26T22:12:32.571072", "MEAN_MOTION": 14.10313826, "ECCENTRICITY": 0.012538, "INCLINATION": 98.7525, "RA_OF_ASC_NODE": 352.0618, "ARG_OF_PERICENTER": 118.0915, "MEAN_ANOMALY": 243.2997, "EPHEMERIS_TYPE": 0, "CLASSIFICATION_TYPE": "U", "NORAD_CAT_ID": 31664, "ELEMENT_SET_NO": 999, "REV_AT_EPOCH": 96201, "BSTAR": 0.00038355, "MEAN_MOTION_DOT": 6.9e-06, "MEAN_MOTION_DDOT": 0}, "tle": {"line1": "1 31664U 99025CBW 25360.92537698  .00000690  00000+0  38355-3 0  9991", "line2": "2 31664  98.7525 352.0618 0125380 118.0915 243.2997 14.10313826962010"}}, "geometry": {"type": "Point", "coordinates": [163.44796513258564, -45.66231484788652]}}, {"type": "Feature", "properties": {"norad_id": 31665, "name": "FENGYUN 1C DEB", "group": "fengyun-1c-debris", "lat": -12.614260892639335, "lon": 44.81339017085358, "alt_km": 1081.0296757092092, "timestamp": "2025-12-27T09:28:56.760031+00:00", "meta": {"OBJECT_NAME": "FENGYUN 1C DEB", "OBJECT_ID": "1999-025CBX", "EPOCH": "2025-12-16T08:14:19.517280", "MEAN_MOTION": 13.84829693, "ECCENTRICITY": 0.01897318, "INCLINATION": 98.4487, "RA_OF_ASC_NODE": 32.9474, "ARG_OF_PERICENTER": 177.2489, "MEAN_ANOMALY": 182.9759, "EPHEMERIS_TYPE": 0, "CLASSIFICATION_TYPE": "U", "NORAD_CAT_ID": 31665, "ELEMENT_SET_NO": 999, "REV_AT_EPOCH": 93241, "BSTAR": 0.0010116548, "MEAN_MOTION_DOT": 1.275e-05, "MEAN_MOTION_DDOT": 0}, "tle": {"line1": "1 31665U 99025CBX 25350.34328145  .00001275  00000+0  10117-2 0  9997", "line2": "2 31665  98.4487  32.9474 0189731 177.2489 182.9759 13.84829693932412"}}, "geometry": {"type": "Point", "coordinates": [44.81339017085358, -12.614260892639335]}}, {"type": "Feature", "properties": {"norad_id": 31666, "name": "FENGYUN 1C DEB", "group": "fengyun-1c-debris", "lat": -75.42269678978352, "lon": -64.54602720129813, "alt_km": 635.7601943047812, "timestamp": "2025-12-27T09:28:56.760042+00:00", "meta": {"OBJECT_NAME": "FENGYUN 1C DEB", "OBJECT_ID": "1999-025CBY", "EPOCH": "2025-12-24T09:09:21.981024", "MEAN_MOTION": 14.84587842, "ECCENTRICITY": 0.00224944, "INCLINATION": 98.6568, "RA_OF_ASC_NODE": 148.0463, "ARG_OF_PERICENTER": 112.6663, "MEAN_ANOMALY": 247.693, "EPHEMERIS_TYPE": 0, "CLASSIFICATION_TYPE": "U", "NORAD_CAT_ID": 31666, "ELEMENT_SET_NO": 999, "REV_AT_EPOCH": 97444, "BSTAR": 0.0041877062, "MEAN_MOTION_DOT": 0.0003563, "MEAN_MOTION_DDOT": 0}, "tle": {"line1": "1 31666U 99025CBY 25358.38150441  .00035630  00000+0  41877-2 0  9991", "line2": "2 31666  98.6568 148.0463 0022494 112.6663 247.6930 14.84587842974448"}}, "geometry": {"type": "Point", "coordinates": [-64.54602720129813, -75.42269678978352]}}, {"type": "Feature", "properties": {"norad_id": 31667, "name": "FENGYUN 1C DEB", "group": "fengyun-1c-debris", "lat": 42.88407736620383, "lon": -154.67953956501088, "alt_km": 772.6779674383151, "timestamp": "2025-12-27T09:28:56.760052+00:00", "meta": {"OBJECT_NAME": "FENGYUN 1C DEB", "OBJECT_ID": "1999-025CBZ", "EPOCH": "2025-12-19T08:58:22.158048", "MEAN_MOTION": 14.23508815, "ECCENTRICITY": 0.0051766, "INCLINATION": 99.0843, "RA_OF_ASC_NODE": 205.588, "ARG_OF_PERICENTER": 68.7145, "MEAN_ANOMALY": 291.9549, "EPHEMERIS_TYPE": 0, "CLASSIFICATION_TYPE": "U", "NORAD_CAT_ID": 31667, "ELEMENT_SET_NO": 999, "REV_AT_EPOCH": 56087, "BSTAR": 0.00019687, "MEAN_MOTION_DOT": 4.07e-06, "MEAN_MOTION_DDOT": 0}, "tle": {"line1": "1 31667U 99025CBZ 25353.37386757  .00000407  00000+0  19687-3 0  9996", "line2": "2 31667  99.0843 205.5880 0051766  68.7145 291.9549 14.23508815560874"}}, "geometry": {"type": "Point", "coordinates": [-154.67953956501088, 42.88407736620383]}}, {"type": "Feature", "properties": {"norad_id": 31672, "name": "FENGYUN 1C DEB", "group": "fengyun-1c-debris", "lat": 50.760794046748, "lon": 21.075827698511013, "alt_km": 792.5044979487011, "timestamp": "2025-12-27T09:28:56.760062+00:00", "meta": {"OBJECT_NAME": "FENGYUN 1C DEB", "OBJECT_ID": "1999-025CCE", "EPOCH": "2025-12-23T18:50:02.785344", "MEAN_MOTION": 14.51067194, "ECCENTRICITY": 0.01078417, "INCLINATION": 98.956, "RA_OF_ASC_NODE": 186.1002, "ARG_OF_PERICENTER": 308.5705, "MEAN_ANOMALY": 50.5863, "EPHEMERIS_TYPE": 0, "CLASSIFICATION_TYPE": "U", "NORAD_CAT_ID": 31672, "ELEMENT_SET_NO": 999, "REV_AT_EPOCH": 65031, "BSTAR": 0.001730864, "MEAN_MOTION_DOT": 7.342e-05, "MEAN_MOTION_DDOT": 0}, "tle": {"line1": "1 31672U 99025CCE 25357.78475446  .00007342  00000+0  17309-2 0  9998", "line2": "2 31672  98.9560 186.1002 0107841 308.5705  50.5863 14.51067194650315"}}, "geometry": {"type": "Point", "coordinates": [21.075827698511013, 50.760794046748]}}, {"type": "Feature", "properties": {"norad_id": 31673, "name": "FENGYUN 1C DEB", "group": "fengyun-1c-debris", "lat": -15.14886534302104, "lon": 14.47788813630917, "alt_km": 878.5662957123104, "timestamp": "2025-12-27T09:28:56.760072+00:00", "meta": {"OBJECT_NAME": "FENGYUN 1C DEB", "OBJECT_ID": "1999-025CCF", "EPOCH": "2025-12-26T07:25:09.303744", "MEAN_MOTION": 14.31959541, "ECCENTRICITY": 0.0125201, "INCLINATION": 99.3737, "RA_OF_ASC_NODE": 195.8686, "ARG_OF_PERICENTER": 10.0185, "MEAN_ANOMALY": 350.3449, "EPHEMERIS_TYPE": 0, "CLASSIFICATION_TYPE": "U", "NORAD_CAT_ID": 31673, "ELEMENT_SET_NO": 999, "REV_AT_EPOCH": 65085, "BSTAR": 0.00022474, "MEAN_MOTION_DOT": 6.04e-06, "MEAN_MOTION_DDOT": 0}, "tle": {"line1": "1 31673U 99025CCF 25360.30913546  .00000604  00000+0  22474-3 0  9993", "line2": "2 31673  99.3737 195.8686 0125201  10.0185 350.3449 14.31959541650853"}}, "geometry": {"type": "Point", "coordinates": [14.47788813630917, -15.14886534302104]}}, {"type": "Feature", "properties": {"norad_id": 31674, "name": "FENGYUN 1C DEB", "group": "fengyun-1c-debris", "lat": -58.94822169564887, "lon": 53.74903599112626, "alt_km": 716.6888892553197, "timestamp": "2025-12-27T09:28:56.760083+00:00", "meta": {"OBJECT_NAME": "FENGYUN 1C DEB", "OBJECT_ID": "1999-025CCG", "EPOCH": "2025-12-21T19:48:19.306080", "MEAN_MOTION": 14.52041025, "ECCENTRICITY": 0.00251906, "INCLINATION": 98.9259, "RA_OF_ASC_NODE": 32.7017, "ARG_OF_PERICENTER": 257.1305, "MEAN_ANOMALY": 102.7074, "EPHEMERIS_TYPE": 0, "CLASSIFICATION_TYPE": "U", "NORAD_CAT_ID": 31674, "ELEMENT_SET_NO": 999, "REV_AT_EPOCH": 64746, "BSTAR": 0.0020848751, "MEAN_MOTION_DOT": 8.422e-05, "MEAN_MOTION_DDOT": 0}, "tle": {"line1": "1 31674U 99025CCG 25355.82522345  .00008422  00000+0  20849-2 0  9997", "line2": "2 31674  98.9259  32.7017 0025190 257.1305 102.7074 14.52041025647467"}}, "geometry": {"type": "Point", "coordinates": [53.74903599112626, -58.94822169564887]}}]}